{
  "type": "FeatureCollection",
  "features": [
    {
      "type": "Feature",
      "properties": {
        "norad_id": 66498,
        "name": "STARLINK-35907",
        "group": "last-30-days",
        "lat": -42.97583194785669,
        "lon": 62.8251698250536,
        "alt_km": 415.60978924263145,
        "timestamp": "2025-12-08T03:50:05.783374+00:00",
        "meta_object_name": "STARLINK-35907",
        "meta_object_id": "2025-263P",
        "meta_epoch": "2025-12-07T06:00:04.999968",
        "meta_mean_motion": 15.5500917,
        "meta_eccentricity": 0.00013758,
        "meta_inclination": 43.0001,
        "meta_ra_of_asc_node": 157.2295,
        "meta_arg_of_pericenter": 267.7137,
        "meta_mean_anomaly": 310.8556,
        "meta_ephemeris_type": 0,
        "meta_classification_type": "U",
        "meta_norad_cat_id": 66498,
        "meta_element_set_no": 999,
        "meta_rev_at_epoch": 475,
        "meta_bstar": -0.03431193,
        "meta_mean_motion_dot": -0.02101572,
        "meta_mean_motion_ddot": 0,
        "tle_line1": "1 66498U 25263P   25341.25005787 -.02101572  00000+0 -34312-1 0  9993",
        "tle_line2": "2 66498  43.0001 157.2295 0001375 267.7137 310.8556 15.55009170  4750"
      },
      "geometry": {
        "type": "Point",
        "coordinates": [
          62.8251698250536,
          -42.97583194785669
        ]
      }
    },
    {
      "type": "Feature",
      "properties": {
        "norad_id": 66499,
        "name": "STARLINK-35816",
        "group": "last-30-days",
        "lat": -42.81095886656863,
        "lon": 68.10765455825104,
        "alt_km": 415.5910170682846,
        "timestamp": "2025-12-08T03:50:05.783384+00:00",
        "meta_object_name": "STARLINK-35816",
        "meta_object_id": "2025-263Q",
        "meta_epoch": "2025-12-07T06:00:04.999968",
        "meta_mean_motion": 15.54997552,
        "meta_eccentricity": 0.00012873,
        "meta_inclination": 43.0005,
        "meta_ra_of_asc_node": 157.2211,
        "meta_arg_of_pericenter": 261.8319,
        "meta_mean_anomaly": 320.574,
        "meta_ephemeris_type": 0,
        "meta_classification_type": "U",
        "meta_norad_cat_id": 66499,
        "meta_element_set_no": 999,
        "meta_rev_at_epoch": 475,
        "meta_bstar": -0.033885798,
        "meta_mean_motion_dot": -0.0207747,
        "meta_mean_motion_ddot": 0,
        "tle_line1": "1 66499U 25263Q   25341.25005787 -.02077470  00000+0 -33886-1 0  9998",
        "tle_line2": "2 66499  43.0005 157.2211 0001287 261.8319 320.5740 15.54997552  4754"
      },
      "geometry": {
        "type": "Point",
        "coordinates": [
          68.10765455825104,
          -42.81095886656863
        ]
      }
    },
    {
      "type": "Feature",
      "properties": {
        "norad_id": 66500,
        "name": "STARLINK-35894",
        "group": "last-30-days",
        "lat": -30.282419410016114,
        "lon": 10.797460838706419,
        "alt_km": 417.53047580294606,
        "timestamp": "2025-12-08T03:50:05.783396+00:00",
        "meta_object_name": "STARLINK-35894",
        "meta_object_id": "2025-263R",
        "meta_epoch": "2025-12-07T06:00:04.999968",
        "meta_mean_motion": 15.50464647,
        "meta_eccentricity": 0.00012896,
        "meta_inclination": 43.0003,
        "meta_ra_of_asc_node": 157.3167,
        "meta_arg_of_pericenter": 298.0707,
        "meta_mean_anomaly": 245.4787,
        "meta_ephemeris_type": 0,
        "meta_classification_type": "U",
        "meta_norad_cat_id": 66500,
        "meta_element_set_no": 999,
        "meta_rev_at_epoch": 475,
        "meta_bstar": 0.0011407962,
        "meta_mean_motion_dot": 0.00066883,
        "meta_mean_motion_ddot": 0,
        "tle_line1": "1 66500U 25263R   25341.25005787  .00066883  00000+0  11408-2 0  9990",
        "tle_line2": "2 66500  43.0003 157.3167 0001289 298.0707 245.4787 15.50464647  4757"
      },
      "geometry": {
        "type": "Point",
        "coordinates": [
          10.797460838706419,
          -30.282419410016114
        ]
      }
    },
    {
      "type": "Feature",
      "properties": {
        "norad_id": 66501,
        "name": "STARLINK-35897",
        "group": "last-30-days",
        "lat": -42.6408328715045,
        "lon": 70.68468268114106,
        "alt_km": 415.52931195057226,
        "timestamp": "2025-12-08T03:50:05.783407+00:00",
        "meta_object_name": "STARLINK-35897",
        "meta_object_id": "2025-263S",
        "meta_epoch": "2025-12-07T06:00:04.999968",
        "meta_mean_motion": 15.54997791,
        "meta_eccentricity": 0.00013608,
        "meta_inclination": 43.0002,
        "meta_ra_of_asc_node": 157.2168,
        "meta_arg_of_pericenter": 267.2591,
        "meta_mean_anomaly": 317.0641,
        "meta_ephemeris_type": 0,
        "meta_classification_type": "U",
        "meta_norad_cat_id": 66501,
        "meta_element_set_no": 999,
        "meta_rev_at_epoch": 475,
        "meta_bstar": -0.03393352,
        "meta_mean_motion_dot": -0.02080139,
        "meta_mean_motion_ddot": 0,
        "tle_line1": "1 66501U 25263S   25341.25005787 -.02080139  00000+0 -33934-1 0  9992",
        "tle_line2": "2 66501  43.0002 157.2168 0001360 267.2591 317.0641 15.54997791  4756"
      },
      "geometry": {
        "type": "Point",
        "coordinates": [
          70.68468268114106,
          -42.6408328715045
        ]
      }
    },
    {
      "type": "Feature",
      "properties": {
        "norad_id": 66502,
        "name": "STARLINK-35922",
        "group": "last-30-days",
        "lat": -41.78059120587441,
        "lon": 78.35898163124209,
        "alt_km": 415.4881954990151,
        "timestamp": "2025-12-08T03:50:05.783417+00:00",
        "meta_object_name": "STARLINK-35922",
        "meta_object_id": "2025-263T",
        "meta_epoch": "2025-12-07T06:00:04.999968",
        "meta_mean_motion": 15.54992138,
        "meta_eccentricity": 0.00013643,
        "meta_inclination": 43.0004,
        "meta_ra_of_asc_node": 157.2014,
        "meta_arg_of_pericenter": 265.9934,
        "meta_mean_anomaly": 324.0832,
        "meta_ephemeris_type": 0,
        "meta_classification_type": "U",
        "meta_norad_cat_id": 66502,
        "meta_element_set_no": 999,
        "meta_rev_at_epoch": 475,
        "meta_bstar": -0.033782881,
        "meta_mean_motion_dot": -0.02071525,
        "meta_mean_motion_ddot": 0,
        "tle_line1": "1 66502U 25263T   25341.25005787 -.02071525  00000+0 -33783-1 0  9994",
        "tle_line2": "2 66502  43.0004 157.2014 0001364 265.9934 324.0832 15.54992138  4759"
      },
      "geometry": {
        "type": "Point",
        "coordinates": [
          78.35898163124209,
          -41.78059120587441
        ]
      }
    },
    {
      "type": "Feature",
      "properties": {
        "norad_id": 66503,
        "name": "STARLINK-35917",
        "group": "last-30-days",
        "lat": -40.93156653786126,
        "lon": 83.32315529924915,
        "alt_km": 415.496221714674,
        "timestamp": "2025-12-08T03:50:05.783428+00:00",
        "meta_object_name": "STARLINK-35917",
        "meta_object_id": "2025-263U",
        "meta_epoch": "2025-12-07T06:00:04.999968",
        "meta_mean_motion": 15.54993001,
        "meta_eccentricity": 0.00013574,
        "meta_inclination": 43.0005,
        "meta_ra_of_asc_node": 157.1924,
        "meta_arg_of_pericenter": 265.1006,
        "meta_mean_anomaly": 328.8112,
        "meta_ephemeris_type": 0,
        "meta_classification_type": "U",
        "meta_norad_cat_id": 66503,
        "meta_element_set_no": 999,
        "meta_rev_at_epoch": 475,
        "meta_bstar": -0.033816011,
        "meta_mean_motion_dot": -0.0207339,
        "meta_mean_motion_ddot": 0,
        "tle_line1": "1 66503U 25263U   25341.25005787 -.02073390  00000+0 -33816-1 0  9994",
        "tle_line2": "2 66503  43.0005 157.1924 0001357 265.1006 328.8112 15.54993001  4757"
      },
      "geometry": {
        "type": "Point",
        "coordinates": [
          83.32315529924915,
          -40.93156653786126
        ]
      }
    },
    {
      "type": "Feature",
      "properties": {
        "norad_id": 66504,
        "name": "STARLINK-35916",
        "group": "last-30-days",
        "lat": 5.941937356677128,
        "lon": -33.394732512239365,
        "alt_km": 443.07650499058764,
        "timestamp": "2025-12-08T03:50:05.783439+00:00",
        "meta_object_name": "STARLINK-35916",
        "meta_object_id": "2025-263V",
        "meta_epoch": "2025-12-07T06:00:04.999968",
        "meta_mean_motion": 15.40653387,
        "meta_eccentricity": 0.00021566,
        "meta_inclination": 43.0002,
        "meta_ra_of_asc_node": 158.2616,
        "meta_arg_of_pericenter": 261.0213,
        "meta_mean_anomaly": 258.3787,
        "meta_ephemeris_type": 0,
        "meta_classification_type": "U",
        "meta_norad_cat_id": 66504,
        "meta_element_set_no": 999,
        "meta_rev_at_epoch": 475,
        "meta_bstar": 0.00096951241,
        "meta_mean_motion_dot": 0.00040348,
        "meta_mean_motion_ddot": 0,
        "tle_line1": "1 66504U 25263V   25341.25005787  .00040348  00000+0  96951-3 0  9999",
        "tle_line2": "2 66504  43.0002 158.2616 0002156 261.0213 258.3787 15.40653387  4758"
      },
      "geometry": {
        "type": "Point",
        "coordinates": [
          -33.394732512239365,
          5.941937356677128
        ]
      }
    }
  ]
}